GOES 17                 
1 43226U 18022A   20175.19632946  .00000105  00000-0  00000-0 0  9991
2 43226   0.0544 235.9922 0000153 133.8742 195.4354  1.00272039  8509
HISPASAT 30W-6          
1 43228U 18023A   20175.36361814 -.00000210  00000-0  00000+0 0  9993
2 43228   0.0424  45.6739 0005482  29.8870 297.3268  1.00270853  8593
SUPERBIRD 8             
1 43271U 18033A   20174.89933541 -.00000085  00000-0  00000+0 0  9991
2 43271   0.0173 319.3373 0001030 119.3994 318.5383  1.00270609  8137
HYLAS 4                 
1 43272U 18033B   20175.14762458 -.00000226  00000-0  00000-0 0  9996
2 43272   0.0712 121.5051 0003517  30.3542 139.5516  1.00270462  8176
IRNSS-1I                
1 43286U 18035A   20174.87831153  .00000094  00000-0  00000-0 0  9993
2 43286  29.1657 109.3465 0018655 185.8937 347.4149  1.00273163  8169
USA 283                 
1 43339U 18036A   20174.28372470 -.00000308  00000-0  00000+0 0  9998
2 43339   0.0070 275.0495 0000260 297.7008 294.4100  1.00272348  3396
COSMOS 2526             
1 43432U 18037A   20174.93521773 -.00000337  00000-0  00000+0 0  9999
2 43432   0.0155  64.1650 0000953  56.5989 255.5268  1.00272759  8060
APSTAR 6C               
1 43450U 18041A   20174.63371800 -.00000309  00000-0  00000+0 0  9994
2 43450   0.0075 261.7803 0002580 185.4174 186.2149  1.00269642  7921
BANGABANDHUSAT-1        
1 43463U 18044A   20175.32166042 -.00000356  00000-0  00000+0 0  9990
2 43463   0.0165  22.4496 0001598  66.0587  58.3333  1.00270313  7825
SES-12                  
1 43488U 18049A   20175.41854792 -.00000263  00000-0  00000+0 0  9995
2 43488   0.0288  56.9937 0000846 214.4955 246.2260  1.00270159  7514
FENGYUN 2H              
1 43491U 18050A   20175.09833041 -.00000122  00000-0  00000+0 0  9993
2 43491   0.6444 274.0200 0003470 221.0955 251.3907  1.00271002  7607
BEIDOU IGSO-7           
1 43539U 18057A   20175.14316429 -.00000065  00000-0  00000-0 0  9992
2 43539  55.0424 182.1979 0029909 214.9037  39.1932  1.00265766  7241
TELSTAR 19V             
1 43562U 18059A   20175.20636707 -.00000272  00000-0  00000-0 0  9991
2 43562   0.0177  43.4710 0002318 103.0480 136.6010  1.00268134  7241
TELKOM 4 (MERAH PUTIH)  
1 43587U 18064A   20175.39519170 -.00000338  00000-0  00000+0 0  9990
2 43587   0.0170 303.0257 0000924 178.7216  40.5398  1.00274687  6958
TELSTAR 18V (APSTAR 5C) 
1 43611U 18069A   20174.94662951 -.00000286  00000-0  00000-0 0  9992
2 43611   0.0178  13.4888 0001819  77.8199 299.0538  1.00270341  6713
AZERSPACE 2 (IS-38)     
1 43632U 18074A   20175.17063196  .00000143  00000-0  00000-0 0  9994
2 43632   0.0177  14.5334 0001162  78.7506 285.0507  1.00270848  6595
HORIZONS 3E             
1 43633U 18074B   20174.99389509 -.00000023  00000-0  00000+0 0  9990
2 43633   0.0084  99.5048 0000969 180.7814 158.1333  1.00270710  6436
AEHF-4 (USA 288)        
1 43651U 18079A   20175.22846946  .00000139  00000-0  00000-0 0  9993
2 43651   3.8644 311.1954 0004841 148.4516 104.3578  1.00271438  6387
BEIDOU-3 G1             
1 43683U 18085A   20174.94240017 -.00000269  00000-0  00000-0 0  9995
2 43683   1.7558 255.3917 0004108 347.7193 147.7830  1.00269870  6145
GSAT-29                 
1 43698U 18089A   20175.23708838  .00000092  00000-0  00000+0 0  9990
2 43698   0.0898 103.8280 0002346 334.6633 333.7635  1.00271451  5918
ES'HAIL 2               
1 43700U 18090A   20175.30303140  .00000151  00000-0  00000+0 0  9997
2 43700   0.0157 356.0778 0000998 112.7027 298.0180  1.00270813  6018
GEO-KOMPSAT-2A          
1 43823U 18100A   20175.02479869 -.00000337  00000-0  00000-0 0  9994
2 43823   0.0488 149.3369 0001861 290.3264 329.1742  1.00270724  5690
GSAT-11                 
1 43824U 18100B   20175.16899740 -.00000070  00000-0  00000-0 0  9998
2 43824   0.0409 260.3574 0007494 196.5712 309.7039  1.00271764  5608
GSAT-7A                 
1 43864U 18105A   20175.16681649  .00000033  00000-0  00000-0 0  9992
2 43864   0.0144  70.8303 0002239  12.9916 310.7830  1.00271415  5560
COSMOS 2533             
1 43867U 18107A   20175.16829950 -.00000032  00000-0  00000-0 0  9996
2 43867   0.0228  81.6539 0000827 180.9582 139.7674  1.00273843  5509
TJS-3                   
1 43874U 18110A   20175.69630587  .00000008  00000-0  00000+0 0  9993
2 43874   0.0723  88.1916 0005106  87.3207 160.4107  1.00273587  5571
TJS-3 AKM               
1 43917U 18110C   20175.66035639  .00000062  00000-0  00000+0 0  9995
2 43917   0.0999 249.4783 0002612 210.8551 108.6670  1.00273834  5431
CHINASAT 2D (ZX 2D)     
1 43920U 19001A   20175.18025083 -.00000330  00000-0  00000-0 0  9998
2 43920   0.0399 210.5128 0002242 200.2286  55.9644  1.00268380  5455
HELLAS-SAT 4 & SGS-1    
1 44034U 19007A   20175.21962111  .00000159  00000-0  00000-0 0  9995
2 44034   0.0754 126.8857 0005549  13.4209 249.5825  1.00269295  5477
GSAT-31                 
1 44035U 19007B   20175.17063196  .00000132  00000-0  00000-0 0  9997
2 44035   0.0670 111.1526 0000536 270.4009 359.5272  1.00270996  5062
NUSANTARA SATU          
1 44048U 19009A   20174.89628215 -.00000227  00000-0  00000-0 0  9996
2 44048   0.0145  29.9725 0001786  61.4497 288.7710  1.00270803  4849
CHINASAT 6C (ZX 6C)     
1 44067U 19012A   20175.25974056 -.00000331  00000-0  99999+0 0  9999
2 44067   0.0573 258.5761 0001131  30.8137 206.0036  1.00269101  4821
WGS 10 (USA 291)        
1 44071U 19014A   20175.02202063  .00000146  00000-0  00000-0 0  9992
2 44071   0.1090 100.2064 0000220 291.5156 271.8713  1.00269858  4725
TIANLIAN 2-01           
1 44076U 19017A   20175.52927370 -.00000129  00000-0  00000+0 0  9991
2 44076   1.9924 286.3298 0033373 210.6382  45.7576  1.00273905  4709
ARABSAT-6A              
1 44186U 19021A   20175.17618907  .00000160  00000-0  00000-0 0  9997
2 44186   0.0454 346.6601 0000742 178.5434 200.5086  1.00269723  4284
BEIDOU-3 IGSO-1         
1 44204U 19023A   20175.10452416 -.00000217  00000-0  10000-3 0  9992
2 44204  55.5047  60.8496 0016395 181.7848 178.7843  1.00292813  4453
BEIDOU-2 G8             
1 44231U 19027A   20175.26194072 -.00000239  00000-0  00000-0 0  9994
2 44231   0.9711 297.4087 0006466 272.3835 300.9458  1.00270349  4181
YAMAL 601               
1 44307U 19031A   20175.17063196  .00000127  00000-0  00000-0 0  9990
2 44307   0.0079  26.4931 0001688  38.2070 317.5260  1.00271711  4024
AT&T T-16               
1 44333U 19034A   20175.43367719 -.00000108  00000-0  00000+0 0  9998
2 44333   0.0151 311.6735 0000554 341.1070  34.5445  1.00268490  3730
EUTELSAT 7C             
1 44334U 19034B   20175.29928024  .00000055  00000-0  00000+0 0  9995
2 44334   0.0173  22.9437 0003416  55.0625 308.6648  1.00270076  4221
BEIDOU-3 IGSO-2         
1 44337U 19035A   20175.20525699 -.00000059  00000-0  00000-0 0  9997
2 44337  55.0670 178.2517 0014625 190.7518  83.4965  1.00288108  3787
COSMOS 2539             
1 44457U 19048A   20175.37199279  .00000087  00000-0  00000+0 0  9992
2 44457   0.0342  89.0436 0000538 171.6930 157.1688  1.00271719  3320
EDRS-C                  
1 44475U 19049A   20175.15849615  .00000161  00000-0  00000-0 0  9999
2 44475   0.0393 290.9949 0000560 132.3971 296.6177  1.00270618  3286
INTELSAT 39 (IS-39)     
1 44476U 19049B   20175.16664203  .00000040  00000-0  00000-0 0  9995
2 44476   0.0110 320.9961 0001387 351.1329  81.6024  1.00271045  3275
AMOS-17                 
1 44479U 19050A   20175.15765671  .00000116  00000-0  00000-0 0  9994
2 44479   0.0251 293.7501 0001741 154.6798 257.0996  1.00271248  3284
AEHF-5 (USA 292)        
1 44481U 19051A   20175.17021712 -.00000029  00000-0  00000-0 0  9995
2 44481   5.9613 308.3112 0002772 158.5210 202.7306  1.01119532  3360
EUTELSAT 5 WEST B       
1 44624U 19067A   20175.29683764 -.00000036  00000-0  00000+0 0  9992
2 44624   0.0402   1.5913 0006134 102.5120 269.6702  1.00271374  2540
TJS-4                   
1 44637U 19070A   20175.17091660 -.00000155  00000-0  00000-0 0  9998
2 44637   0.0507 112.3304 0003844 282.5693  21.8591  1.00239302  2655
BEIDOU-3 IGSO-3         
1 44709U 19073A   20175.40450847 -.00000179  00000-0  10000-3 0  9993
2 44709  58.3894 303.8400 0023896 184.4252  36.7107  1.00280678  2542
TIBA-1                  
1 44800U 19080A   20175.30495059  .00000162  00000-0  00000+0 0  9992
2 44800   0.0502   3.8608 0001740  92.2810 321.0554  1.00271018  2174
INMARSAT GX5            
1 44801U 19080B   20175.26576948 -.00000198  00000-0  00000-0 0  9996
2 44801   0.0775 101.2475 0002842   3.5046 234.8137  1.00270631  2170
JCSAT-18 (KACIFIC 1)    
1 44868U 19091A   20175.04076955 -.00000194  00000-0  00000-0 0  9996
2 44868   0.0511 152.1973 0000396  24.8725 259.2465  1.00270198  2107
ELEKTRO-L 3             
1 44903U 19095A   20174.16629472  .00000009  00000-0  00000-0 0  9994
2 44903   0.1531 285.3713 0071482 226.7122 264.4925  0.99205419  1816
SHIJIAN-20 (SJ-20)      
1 44910U 19097A   20175.66746003 -.00000347  00000-0  00000+0 0  9995
2 44910   0.2334  93.7509 0007186 122.5776  61.9445  1.00267908  1796
GSAT-30                 
1 45026U 20005A   20175.17082935 -.00000158  00000-0  00000-0 0  9999
2 45026   0.0168 318.6207 0005700 117.1486 340.5298  1.00272051  1607
JCSAT-17                
1 45245U 20013A   20174.82412444 -.00000306  00000-0  00000+0 0  9998
2 45245   6.8928 344.0556 0002410 135.1043 224.9752  1.00270555  1339
GEO-KOMPSAT-2B          
1 45246U 20013B   20175.02479869 -.00000337  00000-0  00000-0 0  9991
2 45246   0.0485 191.9875 0000765  79.3024 137.5460  1.00271093  1340
BEIDOU-3 G2             
1 45344U 20017A   20175.17021869 -.00000132  00000-0  00000+0 0  9995
2 45344   2.9502 328.1746 0002922 126.5025 318.4461  1.00271088  1361
